{
  "norad_id": 61202,
  "name": "STARLINK-11309 [DTC]",
  "history": [
    {
      "epoch": "2026-03-28T22:56:15.223200Z",
      "apogee_km": 360.897623279453,
      "perigee_km": 358.52037645378005,
      "latitude_deg": -1.143257396904443e-05,
      "longitude_deg": -89.07028666375847,
      "height_km": 361.2357197754816,
      "semi_major_axis_km": 6737.845999866617,
      "eccentricity": 0.00017641,
      "inclination_deg": 53.1588,
      "raan_deg": 81.3619,
      "arg_perigee_deg": 121.0888,
      "mean_anomaly_deg": 239.0303,
      "mean_motion_rev_day": 15.69716203
    },
    {
      "epoch": "2026-03-29T03:31:18.465600Z",
      "apogee_km": 360.6876124980863,
      "perigee_km": 358.74711044198284,
      "latitude_deg": -1.672038914333086e-05,
      "longitude_deg": -158.9655683464059,
      "height_km": 360.90496600356624,
      "semi_major_axis_km": 6737.854361470035,
      "eccentricity": 0.000144,
      "inclination_deg": 53.159,
      "raan_deg": 80.4184,
      "arg_perigee_deg": 106.4307,
      "mean_anomaly_deg": 253.6869,
      "mean_motion_rev_day": 15.69713281
    },
    {
      "epoch": "2026-03-30T05:29:58.379424Z",
      "apogee_km": 360.4665115789521,
      "perigee_km": 359.18805023629193,
      "latitude_deg": 1.644923340693815e-05,
      "longitude_deg": 164.96678102307592,
      "height_km": 360.90853672313256,
      "semi_major_axis_km": 6737.964280907621,
      "eccentricity": 9.487e-05,
      "inclination_deg": 53.1586,
      "raan_deg": 75.0839,
      "arg_perigee_deg": 105.193,
      "mean_anomaly_deg": 254.9193,
      "mean_motion_rev_day": 15.6967487
    },
    {
      "epoch": "2026-03-30T16:11:44.239776Z",
      "apogee_km": 360.5557511857605,
      "perigee_km": 358.96102610517664,
      "latitude_deg": 4.6225542144740714e-05,
      "longitude_deg": 1.8904468390855824,
      "height_km": 360.9268924717477,
      "semi_major_axis_km": 6737.895388645468,
      "eccentricity": 0.00011834,
      "inclination_deg": 53.1599,
      "raan_deg": 72.8879,
      "arg_perigee_deg": 108.6436,
      "mean_anomaly_deg": 251.4711,
      "mean_motion_rev_day": 15.69698944
    },
    {
      "epoch": "2026-03-31T05:56:53.263680Z",
      "apogee_km": 360.4608882342045,
      "perigee_km": 359.0580581884824,
      "latitude_deg": 5.578361252717842e-06,
      "longitude_deg": 152.21192230292527,
      "height_km": 361.2240787519433,
      "semi_major_axis_km": 6737.896473211344,
      "eccentricity": 0.0001041,
      "inclination_deg": 53.1591,
      "raan_deg": 70.0618,
      "arg_perigee_deg": 141.7013,
      "mean_anomaly_deg": 218.4079,
      "mean_motion_rev_day": 15.69698565
    },
    {
      "epoch": "2026-04-01T15:33:56.244960Z",
      "apogee_km": 360.54410832682606,
      "perigee_km": 359.0159487447536,
      "latitude_deg": 5.1227039346532355e-05,
      "longitude_deg": -0.3335852890673914,
      "height_km": 360.87018289984763,
      "semi_major_axis_km": 6737.9170285357895,
      "eccentricity": 0.0001134,
      "inclination_deg": 53.1612,
      "raan_deg": 63.1593,
      "arg_perigee_deg": 103.3471,
      "mean_anomaly_deg": 256.7674,
      "mean_motion_rev_day": 15.69691382
    }
  ]
}